[Satellite]
VERSION=1.1
NAME=GSAT0201 (PRN E18)
NICKNAME=GSAT0201 (PRN E18)
TLE1=1 40128U 14050A   18020.28068215 -.00000068  00000-0  00000-0 0  9993
TLE2=2 40128  50.4158  36.5106 1638358  70.8463 306.2194  1.85519987 21396
